{"type": "FeatureCollection", "features": [ {"type": "Feature", "properties": {"norad_id": 30759, "name": "FENGYUN 1C DEB", "group": "fengyun-1c-debris", "lat": 9.593201054654335, "lon": 105.55079049156947, "alt_km": 715.4673482782227, "timestamp": "2025-12-24T03:53:29.925729+00:00", "meta": {"OBJECT_NAME": "FENGYUN 1C DEB", "OBJECT_ID": "1999-025ATV", "EPOCH": "2025-12-22T21:03:46.533888", "MEAN_MOTION": 14.54698225, "ECCENTRICITY": 0.0008625, "INCLINATION": 99.2575, "RA_OF_ASC_NODE": 105.7098, "ARG_OF_PERICENTER": 139.7983, "MEAN_ANOMALY": 346.9311, "EPHEMERIS_TYPE": 0, "CLASSIFICATION_TYPE": "U", "NORAD_CAT_ID": 30759, "ELEMENT_SET_NO": 999, "REV_AT_EPOCH": 97802, "BSTAR": 0.0025188, "MEAN_MOTION_DOT": 0.00010745, "MEAN_MOTION_DDOT": 0}, "tle": {"line1": "1 30759U 99025ATV 25356.87762192  .00010745  00000+0  25188-2 0  9994", "line2": "2 30759  99.2575 105.7098 0008625 139.7983 346.9311 14.54698225978023"}}, "geometry": {"type": "Point", "coordinates": [105.55079049156947, 9.593201054654335]}}, {"type": "Feature", "properties": {"norad_id": 30760, "name": "FENGYUN 1C DEB", "group": "fengyun-1c-debris", "lat": 3.062185547912664, "lon": 175.00674241397854, "alt_km": 904.8794994863501, "timestamp": "2025-12-24T03:53:29.925739+00:00", "meta": {"OBJECT_NAME": "FENGYUN 1C DEB", "OBJECT_ID": "1999-025ATW", "EPOCH": "2025-12-23T11:40:07.654080", "MEAN_MOTION": 14.05189808, "ECCENTRICITY": 0.0052374, "INCLINATION": 98.8227, "RA_OF_ASC_NODE": 353.8732, "ARG_OF_PERICENTER": 313.1528, "MEAN_ANOMALY": 46.5267, "EPHEMERIS_TYPE": 0, "CLASSIFICATION_TYPE": "U", "NORAD_CAT_ID": 30760, "ELEMENT_SET_NO": 999, "REV_AT_EPOCH": 96373, "BSTAR": 0.00029815, "MEAN_MOTION_DOT": 4.44e-06, "MEAN_MOTION_DDOT": 0}, "tle": {"line1": "1 30760U 99025ATW 25357.48619970  .00000444  00000+0  29815-3 0  9996", "line2": "2 30760  98.8227 353.8732 0052374 313.1528  46.5267 14.05189808963731"}}, "geometry": {"type": "Point", "coordinates": [175.00674241397854, 3.062185547912664]}}, {"type": "Feature", "properties": {"norad_id": 30761, "name": "FENGYUN 1C DEB", "group": "fengyun-1c-debris", "lat": 73.19253660492402, "lon": 136.21896183325072, "alt_km": 825.0252790922614, "timestamp": "2025-12-24T03:53:29.925749+00:00", "meta": {"OBJECT_NAME": "FENGYUN 1C DEB", "OBJECT_ID": "1999-025ATX", "EPOCH": "2025-12-23T07:20:01.811328", "MEAN_MOTION": 14.35832464, "ECCENTRICITY": 0.0083819, "INCLINATION": 98.9668, "RA_OF_ASC_NODE": 283.8137, "ARG_OF_PERICENTER": 282.72, "MEAN_ANOMALY": 76.4626, "EPHEMERIS_TYPE": 0, "CLASSIFICATION_TYPE": "U", "NORAD_CAT_ID": 30761, "ELEMENT_SET_NO": 999, "REV_AT_EPOCH": 97893, "BSTAR": 0.00094946, "MEAN_MOTION_DOT": 2.813e-05, "MEAN_MOTION_DDOT": 0}, "tle": {"line1": "1 30761U 99025ATX 25357.30557652  .00002813  00000+0  94946-3 0  9995", "line2": "2 30761  98.9668 283.8137 0083819 282.7200  76.4626 14.35832464978934"}}, "geometry": {"type": "Point", "coordinates": [136.21896183325072, 73.19253660492402]}}, {"type": "Feature", "properties": {"norad_id": 30762, "name": "FENGYUN 1C DEB", "group": "fengyun-1c-debris", "lat": 12.886222197252094, "lon": 170.63047432565392, "alt_km": 915.0670887917167, "timestamp": "2025-12-24T03:53:29.925759+00:00", "meta": {"OBJECT_NAME": "FENGYUN 1C DEB", "OBJECT_ID": "1999-025ATY", "EPOCH": "2025-12-23T19:05:46.180032", "MEAN_MOTION": 13.98112701, "ECCENTRICITY": 0.0197365, "INCLINATION": 98.8755, "RA_OF_ASC_NODE": 348.2272, "ARG_OF_PERICENTER": 264.4415, "MEAN_ANOMALY": 221.1043, "EPHEMERIS_TYPE": 0, "CLASSIFICATION_TYPE": "U", "NORAD_CAT_ID": 30762, "ELEMENT_SET_NO": 999, "REV_AT_EPOCH": 95792, "BSTAR": 0.00052269, "MEAN_MOTION_DOT": 8.33e-06, "MEAN_MOTION_DDOT": 0}, "tle": {"line1": "1 30762U 99025ATY 25357.79567338  .00000833  00000+0  52269-3 0  9993", "line2": "2 30762  98.8755 348.2272 0197365 264.4415 221.1043 13.98112701957925"}}, "geometry": {"type": "Point", "coordinates": [170.63047432565392, 12.886222197252094]}}, {"type": "Feature", "properties": {"norad_id": 30763, "name": "FENGYUN 1C DEB", "group": "fengyun-1c-debris", "lat": 57.265522792273224, "lon": -95.5304441717714, "alt_km": 689.6833042010539, "timestamp": "2025-12-24T03:53:29.925769+00:00", "meta": {"OBJECT_NAME": "FENGYUN 1C DEB", "OBJECT_ID": "1999-025ATZ", "EPOCH": "2025-12-23T04:37:05.215872", "MEAN_MOTION": 14.61481036, "ECCENTRICITY": 0.00244024, "INCLINATION": 98.892, "RA_OF_ASC_NODE": 69.3323, "ARG_OF_PERICENTER": 238.4306, "MEAN_ANOMALY": 184.226, "EPHEMERIS_TYPE": 0, "CLASSIFICATION_TYPE": "U", "NORAD_CAT_ID": 30763, "ELEMENT_SET_NO": 999, "REV_AT_EPOCH": 97297, "BSTAR": 0.0042638821, "MEAN_MOTION_DOT": 0.00021233, "MEAN_MOTION_DDOT": 0}, "tle": {"line1": "1 30763U 99025ATZ 25357.19242148  .00021233  00000+0  42639-2 0  9993", "line2": "2 30763  98.8920  69.3323 0024402 238.4306 184.2260 14.61481036972972"}}, "geometry": {"type": "Point", "coordinates": [-95.5304441717714, 57.265522792273224]}}, {"type": "Feature", "properties": {"norad_id": 30764, "name": "FENGYUN 1C DEB", "group": "fengyun-1c-debris", "lat": -81.17296346865423, "lon": 66.44490925551868, "alt_km": 522.6126054721108, "timestamp": "2025-12-24T03:53:29.925779+00:00", "meta": {"OBJECT_NAME": "FENGYUN 1C DEB", "OBJECT_ID": "1999-025AUA", "EPOCH": "2025-12-23T04:44:43.234368", "MEAN_MOTION": 15.2968695, "ECCENTRICITY": 0.00765204, "INCLINATION": 98.7799, "RA_OF_ASC_NODE": 329.735, "ARG_OF_PERICENTER": 134.505, "MEAN_ANOMALY": 226.2474, "EPHEMERIS_TYPE": 0, "CLASSIFICATION_TYPE": "U", "NORAD_CAT_ID": 30764, "ELEMENT_SET_NO": 999, "REV_AT_EPOCH": 1382, "BSTAR": 0.0010516595, "MEAN_MOTION_DOT": 0.00033083, "MEAN_MOTION_DDOT": 0}, "tle": {"line1": "1 30764U 99025AUA 25357.19772262  .00033083  00000+0  10517-2 0  9995", "line2": "2 30764  98.7799 329.7350 0076520 134.5050 226.2474 15.29686950 13820"}}, "geometry": {"type": "Point", "coordinates": [66.44490925551868, -81.17296346865423]}}, {"type": "Feature", "properties": {"norad_id": 30765, "name": "FENGYUN 1C DEB", "group": "fengyun-1c-debris", "lat": -34.31895839647563, "lon": 50.04267714501989, "alt_km": 891.5242003012536, "timestamp": "2025-12-24T03:53:29.925789+00:00", "meta": {"OBJECT_NAME": "FENGYUN 1C DEB", "OBJECT_ID": "1999-025AUB", "EPOCH": "2025-12-23T02:43:26.836320", "MEAN_MOTION": 14.14742197, "ECCENTRICITY": 0.00686814, "INCLINATION": 98.787, "RA_OF_ASC_NODE": 42.9496, "ARG_OF_PERICENTER": 179.8306, "MEAN_ANOMALY": 207.2206, "EPHEMERIS_TYPE": 0, "CLASSIFICATION_TYPE": "U", "NORAD_CAT_ID": 30765, "ELEMENT_SET_NO": 999, "REV_AT_EPOCH": 96969, "BSTAR": 0.00073919968, "MEAN_MOTION_DOT": 1.413e-05, "MEAN_MOTION_DDOT": 0}, "tle": {"line1": "1 30765U 99025AUB 25357.11350505  .00001413  00000+0  73920-3 0  9990", "line2": "2 30765  98.7870  42.9496 0068681 179.8306 207.2206 14.14742197969697"}}, "geometry": {"type": "Point", "coordinates": [50.04267714501989, -34.31895839647563]}}, {"type": "Feature", "properties": {"norad_id": 30766, "name": "FENGYUN 1C DEB", "group": "fengyun-1c-debris", "lat": -11.69148914733532, "lon": -0.05596245578668559, "alt_km": 829.4044656946235, "timestamp": "2025-12-24T03:53:29.925800+00:00", "meta": {"OBJECT_NAME": "FENGYUN 1C DEB", "OBJECT_ID": "1999-025AUC", "EPOCH": "2025-12-22T06:15:29.156832", "MEAN_MOTION": 14.09552172, "ECCENTRICITY": 0.00834437, "INCLINATION": 98.6731, "RA_OF_ASC_NODE": 356.3023, "ARG_OF_PERICENTER": 47.7471, "MEAN_ANOMALY": 18.2584, "EPHEMERIS_TYPE": 0, "CLASSIFICATION_TYPE": "U", "NORAD_CAT_ID": 30766, "ELEMENT_SET_NO": 999, "REV_AT_EPOCH": 62931, "BSTAR": 0.00061537717, "MEAN_MOTION_DOT": 1.07e-05, "MEAN_MOTION_DDOT": 0}, "tle": {"line1": "1 30766U 99025AUC 25356.26075413  .00001070  00000+0  61538-3 0  9999", "line2": "2 30766  98.6731 356.3023 0083443  47.7471  18.2584 14.09552172629317"}}, "geometry": {"type": "Point", "coordinates": [-0.05596245578668559, -11.69148914733532]}}, {"type": "Feature", "properties": {"norad_id": 30768, "name": "FENGYUN 1C DEB", "group": "fengyun-1c-debris", "lat": 24.764998245983133, "lon": 84.1119820492687, "alt_km": 718.2157235492614, "timestamp": "2025-12-24T03:53:29.925810+00:00", "meta": {"OBJECT_NAME": "FENGYUN 1C DEB", "OBJECT_ID": "1999-025AUE", "EPOCH": "2025-12-23T04:41:50.951040", "MEAN_MOTION": 14.48040701, "ECCENTRICITY": 0.00242926, "INCLINATION": 98.6173, "RA_OF_ASC_NODE": 87.1386, "ARG_OF_PERICENTER": 69.0185, "MEAN_ANOMALY": 321.3168, "EPHEMERIS_TYPE": 0, "CLASSIFICATION_TYPE": "U", "NORAD_CAT_ID": 30768, "ELEMENT_SET_NO": 999, "REV_AT_EPOCH": 98022, "BSTAR": 0.0020918624, "MEAN_MOTION_DOT": 7.765e-05, "MEAN_MOTION_DDOT": 0}, "tle": {"line1": "1 30768U 99025AUE 25357.19572860  .00007765  00000+0  20919-2 0  9996", "line2": "2 30768  98.6173  87.1386 0024292  69.0185 321.3168 14.48040701980225"}}, "geometry": {"type": "Point", "coordinates": [84.1119820492687, 24.764998245983133]}}, {"type": "Feature", "properties": {"norad_id": 30770, "name": "FENGYUN 1C DEB", "group": "fengyun-1c-debris", "lat": 21.98215663939459, "lon": 0.35658914342005044, "alt_km": 845.7208489172917, "timestamp": "2025-12-24T03:53:29.925820+00:00", "meta": {"OBJECT_NAME": "FENGYUN 1C DEB", "OBJECT_ID": "1999-025AUG", "EPOCH": "2025-12-23T18:26:49.210368", "MEAN_MOTION": 14.15696066, "ECCENTRICITY": 0.0012792, "INCLINATION": 98.6543, "RA_OF_ASC_NODE": 3.4992, "ARG_OF_PERICENTER": 252.1385, "MEAN_ANOMALY": 285.6204, "EPHEMERIS_TYPE": 0, "CLASSIFICATION_TYPE": "U", "NORAD_CAT_ID": 30770, "ELEMENT_SET_NO": 999, "REV_AT_EPOCH": 97063, "BSTAR": 0.00025104, "MEAN_MOTION_DOT": 4.5e-06, "MEAN_MOTION_DDOT": 0}, "tle": {"line1": "1 30770U 99025AUG 25357.76862512  .00000450  00000+0  25104-3 0  9994", "line2": "2 30770  98.6543   3.4992 0012792 252.1385 285.6204 14.15696066970634"}}, "geometry": {"type": "Point", "coordinates": [0.35658914342005044, 21.98215663939459]}}]}